[
    { "id": 1, "title": "Feria de Primavera", "type": "Feria", "direction": "Carrer de la Primavera, 123", "zip": "05980", "year": "1995", "link": "https://www.ejemplo1.com" },
    { "id": 2, "title": "Mercado Otoñal", "type": "Mercado", "direction": "Carrer d'Otoño, 456", "zip": "20029", "year": "2002", "link": "https://www.ejemplo2.com" },
    { "id": 3, "title": "Feria de Invierno", "type": "Feria", "direction": "Carrer de l'Invierno, 789", "zip": "01002", "year": "2010", "link": "https://www.ejemplo3.com" },
    { "id": 4, "title": "Feria de Verano", "type": "Feria", "direction": "Carrer de Verano, 321", "zip": "81020", "year": "2018", "link": "https://www.ejemplo4.com" },
    { "id": 5, "title": "Mercado Floral", "type": "Mercado", "direction": "Carrer dels Flors, 654", "zip": "32022", "year": "2023", "link": "https://www.ejemplo5.com" },
    { "id": 6, "title": "Feria de Árbol", "type": "Feria", "direction": "Carrer dels Àrbols, 135", "zip": "98088", "year": "1989", "link": "https://www.ejemplo6.com" },
    { "id": 7, "title": "Feria del Cielo", "type": "Feria", "direction": "Carrer del Cielo, 246", "zip": "00200", "year": "2000", "link": "https://www.ejemplo7.com" },
    { "id": 8, "title": "Mercado Solar", "type": "Mercado", "direction": "Carrer del Sol, 357", "zip": "21020", "year": "2012", "link": "https://www.ejemplo8.com" },
    { "id": 9, "title": "Feria Lunar", "type": "Feria", "direction": "Carrer de la Lluna, 468", "zip": "39029", "year": "1993", "link": "https://www.ejemplo9.com" },
    { "id": 10, "title": "Feria de Estrella", "type": "Feria", "direction": "Carrer de les Estrelles, 579", "zip": "51051", "year": "2015", "link": "https://www.ejemplo10.com" },
    { "id": 11, "title": "Mercado Nublado", "type": "Mercado", "direction": "Carrer Nublada, 690", "zip": "58689", "year": "1985", "link": "https://www.ejemplo11.com" },
    { "id": 12, "title": "Feria del Rayo", "type": "Feria", "direction": "Carrer del Raig, 801", "zip": "12012", "year": "2021", "link": "https://www.ejemplo12.com" },
    { "id": 13, "title": "Feria del Viento", "type": "Feria", "direction": "Carrer del Vent, 912", "zip": "09109", "year": "1990", "link": "https://www.ejemplo13.com" },
    { "id": 14, "title": "Mercado Sombrío", "type": "Mercado", "direction": "Carrer de la Sombra, 234", "zip": "50005", "year": "2005", "link": "https://www.ejemplo14.com" },
    { "id": 15, "title": "Feria Ecológica", "type": "Feria", "direction": "Carrer Ecològic, 678", "zip": "80020", "year": "2008", "link": "https://www.ejemplo15.com" },
    { "id": 16, "title": "Feria Aromática", "type": "Feria", "direction": "Carrer Aromàtic, 345", "zip": "72017", "year": "2017", "link": "https://www.ejemplo16.com" },
    { "id": 17, "title": "Mercado de Puertas", "type": "Mercado", "direction": "Carrer de les Portes, 987", "zip": "02020", "year": "2020", "link": "https://www.ejemplo17.com" },
    { "id": 18, "title": "Feria de Tierra", "type": "Feria", "direction": "Carrer de la Terra, 432", "zip": "49024", "year": "1994", "link": "https://www.ejemplo18.com" },
    { "id": 19, "title": "Feria del Mar", "type": "Feria", "direction": "Carrer del Mar, 876", "zip": "61016", "year": "2016", "link": "https://www.ejemplo19.com" },
    { "id": 20, "title": "Mercado Rocoso", "type": "Mercado", "direction": "Carrer Rocós, 543", "zip": "68086", "year": "1986", "link": "https://www.ejemplo20.com" },
    { "id": 21, "title": "Feria Vial", "type": "Feria", "direction": "Carrer Vial, 765", "zip": "22022", "year": "2022", "link": "https://www.ejemplo21.com" },
    { "id": 22, "title": "Feria del Camino", "type": "Feria", "direction": "Carrer del Camí, 890", "zip": "19091", "year": "1991", "link": "https://www.ejemplo22.com" },
    { "id": 23, "title": "Mercado del Rincón", "type": "Mercado", "direction": "Carrer del Rincón, 234", "zip": "30203", "year": "2003", "link": "https://www.ejemplo23.com" },
    { "id": 24, "title": "Feria del Destino", "type": "Feria", "direction": "Carrer del Destí, 456", "zip": "11011", "year": "2011", "link": "https://www.ejemplo24.com" },
    { "id": 25, "title": "Feria del Horizonte", "type": "Feria", "direction": "Carrer de l'Horizó, 678", "zip": "29092", "year": "1992", "link": "https://www.ejemplo25.com" },
    { "id": 26, "title": "Mercado del Templo", "type": "Mercado", "direction": "Carrer del Templ, 890", "zip": "91019", "year": "2019", "link": "https://www.ejemplo26.com" },
    { "id": 27, "title": "Feria Espacial", "type": "Feria", "direction": "Carrer Espacial, 101", "zip": "42024", "year": "2024", "link": "https://www.ejemplo27.com" }
]
